[{"OBJECT_NAME":"STARLINK-30120","OBJECT_ID":"2023-079B","EPOCH":"2026-03-09T22:00:01.999584","MEAN_MOTION":15.17882096,"ECCENTRICITY":0.0002013,"INCLINATION":42.9994,"RA_OF_ASC_NODE":105.6157,"ARG_OF_PERICENTER":280.1229,"MEAN_ANOMALY":118.6442,"EPHEMERIS_TYPE":0,"CLASSIFICATION_TYPE":"U","NORAD_CAT_ID":56824,"ELEMENT_SET_NO":999,"REV_AT_EPOCH":578,"BSTAR":0.059515571,"MEAN_MOTION_DOT":0.01333909,"MEAN_MOTION_DDOT":0},{"OBJECT_NAME":"OBJECT G","OBJECT_ID":"2026-023G","EPOCH":"2026-03-09T17:12:13.064832","MEAN_MOTION":15.23234695,"ECCENTRICITY":0.00237819,"INCLINATION":96.6246,"RA_OF_ASC_NODE":144.1318,"ARG_OF_PERICENTER":118.2502,"MEAN_ANOMALY":242.1141,"EPHEMERIS_TYPE":0,"CLASSIFICATION_TYPE":"U","NORAD_CAT_ID":67680,"ELEMENT_SET_NO":999,"REV_AT_EPOCH":484,"BSTAR":0.00060026958,"MEAN_MOTION_DOT":0.00014279,"MEAN_MOTION_DDOT":0}]
